[{"OBJECT_NAME":"RROCI-2","OBJECT_ID":"2024-043J","EPOCH":"2026-03-09T21:40:56.693280","MEAN_MOTION":14.99383357,"ECCENTRICITY":0.00054118,"INCLINATION":97.8279,"RA_OF_ASC_NODE":200.9973,"ARG_OF_PERICENTER":337.3784,"MEAN_ANOMALY":22.7199,"EPHEMERIS_TYPE":0,"CLASSIFICATION_TYPE":"U","NORAD_CAT_ID":59106,"ELEMENT_SET_NO":999,"REV_AT_EPOCH":10988,"BSTAR":0.00035067832,"MEAN_MOTION_DOT":4.232e-5,"MEAN_MOTION_DDOT":0},{"OBJECT_NAME":"STARLINK-34533","OBJECT_ID":"2025-142V","EPOCH":"2026-03-09T23:20:59.104320","MEAN_MOTION":14.9831918,"ECCENTRICITY":0.00029794,"INCLINATION":70.0006,"RA_OF_ASC_NODE":313.7262,"ARG_OF_PERICENTER":274.2508,"MEAN_ANOMALY":85.8311,"EPHEMERIS_TYPE":0,"CLASSIFICATION_TYPE":"U","NORAD_CAT_ID":64715,"ELEMENT_SET_NO":999,"REV_AT_EPOCH":3950,"BSTAR":0.00061409259,"MEAN_MOTION_DOT":7.24e-5,"MEAN_MOTION_DDOT":0}]
